{"type": "FeatureCollection", "features": [ {"type": "Feature", "properties": {"norad_id": 33153, "name": "INTELSAT 25 (IS-25)", "group": "intelsat", "lat": -0.7490638610561439, "lon": -78.12805504857494, "alt_km": 35764.481897821446, "timestamp": "2025-12-08T15:42:49.446188+00:00", "meta": {"OBJECT_NAME": "INTELSAT 25 (IS-25)", "OBJECT_ID": "2008-034A", "EPOCH": "2025-12-08T06:36:22.781088", "MEAN_MOTION": 1.00270471, "ECCENTRICITY": 0.00054284, "INCLINATION": 2.216, "RA_OF_ASC_NODE": 82.6954, "ARG_OF_PERICENTER": 183.2356, "MEAN_ANOMALY": 238.9548, "EPHEMERIS_TYPE": 0, "CLASSIFICATION_TYPE": "U", "NORAD_CAT_ID": 33153, "ELEMENT_SET_NO": 999, "REV_AT_EPOCH": 6378, "BSTAR": 0, "MEAN_MOTION_DOT": -2.22e-06, "MEAN_MOTION_DDOT": 0}, "tle": {"line1": "1 33153U 08034A   25342.27526367 -.00000222  00000+0  00000+0 0  9999", "line2": "2 33153   2.2160  82.6954 0005428 183.2356 238.9548  1.00270471 63784"}}, "geometry": {"type": "Point", "coordinates": [-78.12805504857494, -0.7490638610561439]}}, {"type": "Feature", "properties": {"norad_id": 33376, "name": "GALAXY 19 (G-19)", "group": "intelsat", "lat": -0.03321808600850139, "lon": -143.67567326220913, "alt_km": 35778.1905766139, "timestamp": "2025-12-08T15:42:49.446200+00:00", "meta": {"OBJECT_NAME": "GALAXY 19 (G-19)", "OBJECT_ID": "2008-045A", "EPOCH": "2025-12-08T06:02:16.852416", "MEAN_MOTION": 1.00269875, "ECCENTRICITY": 0.00033885, "INCLINATION": 0.0168, "RA_OF_ASC_NODE": 305.4032, "ARG_OF_PERICENTER": 324.9632, "MEAN_ANOMALY": 160.4637, "EPHEMERIS_TYPE": 0, "CLASSIFICATION_TYPE": "U", "NORAD_CAT_ID": 33376, "ELEMENT_SET_NO": 999, "REV_AT_EPOCH": 6298, "BSTAR": 0, "MEAN_MOTION_DOT": -1.36e-06, "MEAN_MOTION_DDOT": 0}, "tle": {"line1": "1 33376U 08045A   25342.25158394 -.00000136  00000+0  00000+0 0  9991", "line2": "2 33376   0.0168 305.4032 0003388 324.9632 160.4637  1.00269875 62987"}}, "geometry": {"type": "Point", "coordinates": [-143.67567326220913, -0.03321808600850139]}}, {"type": "Feature", "properties": {"norad_id": 35493, "name": "FM-5", "group": "intelsat", "lat": -0.03152905926260953, "lon": -132.77595398869136, "alt_km": 35784.090509004425, "timestamp": "2025-12-08T15:42:49.446212+00:00", "meta": {"OBJECT_NAME": "FM-5", "OBJECT_ID": "2009-034A", "EPOCH": "2025-12-08T01:12:31.300128", "MEAN_MOTION": 1.00271963, "ECCENTRICITY": 6.781e-05, "INCLINATION": 0.0193, "RA_OF_ASC_NODE": 289.5767, "ARG_OF_PERICENTER": 251.7714, "MEAN_ANOMALY": 187.7034, "EPHEMERIS_TYPE": 0, "CLASSIFICATION_TYPE": "U", "NORAD_CAT_ID": 35493, "ELEMENT_SET_NO": 999, "REV_AT_EPOCH": 4472, "BSTAR": 0, "MEAN_MOTION_DOT": -1.97e-06, "MEAN_MOTION_DDOT": 0}, "tle": {"line1": "1 35493U 09034A   25342.05036227 -.00000197  00000+0  00000+0 0  9997", "line2": "2 35493   0.0193 289.5767 0000678 251.7714 187.7034  1.00271963 44727"}}, "geometry": {"type": "Point", "coordinates": [-132.77595398869136, -0.03152905926260953]}}, {"type": "Feature", "properties": {"norad_id": 36097, "name": "INTELSAT 14 (IS-14)", "group": "intelsat", "lat": -0.02826075032167158, "lon": -91.62944284880807, "alt_km": 35775.011892029615, "timestamp": "2025-12-08T15:42:49.446224+00:00", "meta": {"OBJECT_NAME": "INTELSAT 14 (IS-14)", "OBJECT_ID": "2009-064A", "EPOCH": "2025-12-08T06:32:30.651936", "MEAN_MOTION": 1.00270661, "ECCENTRICITY": 0.00027086, "INCLINATION": 0.0099, "RA_OF_ASC_NODE": 327.5541, "ARG_OF_PERICENTER": 296.1508, "MEAN_ANOMALY": 226.7144, "EPHEMERIS_TYPE": 0, "CLASSIFICATION_TYPE": "U", "NORAD_CAT_ID": 36097, "ELEMENT_SET_NO": 999, "REV_AT_EPOCH": 5869, "BSTAR": 0, "MEAN_MOTION_DOT": -2.71e-06, "MEAN_MOTION_DDOT": 0}, "tle": {"line1": "1 36097U 09064A   25342.27257699 -.00000271  00000+0  00000+0 0  9996", "line2": "2 36097   0.0099 327.5541 0002708 296.1508 226.7144  1.00270661 58697"}}, "geometry": {"type": "Point", "coordinates": [-91.62944284880807, -0.02826075032167158]}}, {"type": "Feature", "properties": {"norad_id": 36106, "name": "INTELSAT 15 (IS-15)", "group": "intelsat", "lat": 0.022838057213804695, "lon": 38.530574243879514, "alt_km": 35794.07163704278, "timestamp": "2025-12-08T15:42:49.446236+00:00", "meta": {"OBJECT_NAME": "INTELSAT 15 (IS-15)", "OBJECT_ID": "2009-067A", "EPOCH": "2025-12-08T07:09:27.115200", "MEAN_MOTION": 1.00270231, "ECCENTRICITY": 0.00024729, "INCLINATION": 0.0135, "RA_OF_ASC_NODE": 6.1088, "ARG_OF_PERICENTER": 256.4158, "MEAN_ANOMALY": 7.2984, "EPHEMERIS_TYPE": 0, "CLASSIFICATION_TYPE": "U", "NORAD_CAT_ID": 36106, "ELEMENT_SET_NO": 999, "REV_AT_EPOCH": 3931, "BSTAR": 0, "MEAN_MOTION_DOT": -1.82e-06, "MEAN_MOTION_DDOT": 0}, "tle": {"line1": "1 36106U 09067A   25342.29823050 -.00000182  00000+0  00000+0 0  9993", "line2": "2 36106   0.0135   6.1088 0002472 256.4158   7.2984  1.00270231 39318"}}, "geometry": {"type": "Point", "coordinates": [38.530574243879514, 0.022838057213804695]}}, {"type": "Feature", "properties": {"norad_id": 36131, "name": "DIRECTV 12", "group": "intelsat", "lat": 0.011550618373094308, "lon": -149.3666233643613, "alt_km": 35787.85579454317, "timestamp": "2025-12-08T15:42:49.446248+00:00", "meta": {"OBJECT_NAME": "DIRECTV 12", "OBJECT_ID": "2009-075A", "EPOCH": "2025-12-08T05:59:12.158592", "MEAN_MOTION": 1.00271707, "ECCENTRICITY": 5.359e-05, "INCLINATION": 0.0428, "RA_OF_ASC_NODE": 139.5638, "ARG_OF_PERICENTER": 212.1136, "MEAN_ANOMALY": 72.6596, "EPHEMERIS_TYPE": 0, "CLASSIFICATION_TYPE": "U", "NORAD_CAT_ID": 36131, "ELEMENT_SET_NO": 999, "REV_AT_EPOCH": 4463, "BSTAR": 0, "MEAN_MOTION_DOT": -1.01e-06, "MEAN_MOTION_DDOT": 0}, "tle": {"line1": "1 36131U 09075A   25342.24944628 -.00000101  00000+0  00000+0 0  9991", "line2": "2 36131   0.0428 139.5638 0000535 212.1136  72.6596  1.00271707 44631"}}, "geometry": {"type": "Point", "coordinates": [-149.3666233643613, 0.011550618373094308]}}, {"type": "Feature", "properties": {"norad_id": 36397, "name": "INTELSAT 16 (IS-16)", "group": "intelsat", "lat": -0.0348696635349007, "lon": -122.84997938237935, "alt_km": 35777.42664852819, "timestamp": "2025-12-08T15:42:49.446259+00:00", "meta": {"OBJECT_NAME": "INTELSAT 16 (IS-16)", "OBJECT_ID": "2010-006A", "EPOCH": "2025-12-08T06:13:46.013376", "MEAN_MOTION": 1.00270495, "ECCENTRICITY": 0.00023331, "INCLINATION": 0.0184, "RA_OF_ASC_NODE": 303.6194, "ARG_OF_PERICENTER": 317.0913, "MEAN_ANOMALY": 193.8028, "EPHEMERIS_TYPE": 0, "CLASSIFICATION_TYPE": "U", "NORAD_CAT_ID": 36397, "ELEMENT_SET_NO": 999, "REV_AT_EPOCH": 5774, "BSTAR": 0, "MEAN_MOTION_DOT": -2.42e-06, "MEAN_MOTION_DDOT": 0}, "tle": {"line1": "1 36397U 10006A   25342.25956034 -.00000242  00000+0  00000+0 0  9992", "line2": "2 36397   0.0184 303.6194 0002333 317.0913 193.8028  1.00270495 57746"}}, "geometry": {"type": "Point", "coordinates": [-122.84997938237935, -0.0348696635349007]}}, {"type": "Feature", "properties": {"norad_id": 37185, "name": "XM-5", "group": "intelsat", "lat": -0.07044367775087106, "lon": -161.8174482992225, "alt_km": 35781.57598301632, "timestamp": "2025-12-08T15:42:49.446271+00:00", "meta": {"OBJECT_NAME": "XM-5", "OBJECT_ID": "2010-053A", "EPOCH": "2025-12-08T05:52:25.053024", "MEAN_MOTION": 1.00270611, "ECCENTRICITY": 0.00015753, "INCLINATION": 0.0633, "RA_OF_ASC_NODE": 272.7253, "ARG_OF_PERICENTER": 242.5035, "MEAN_ANOMALY": 254.9421, "EPHEMERIS_TYPE": 0, "CLASSIFICATION_TYPE": "U", "NORAD_CAT_ID": 37185, "ELEMENT_SET_NO": 999, "REV_AT_EPOCH": 5556, "BSTAR": 0, "MEAN_MOTION_DOT": -2e-07, "MEAN_MOTION_DDOT": 0}, "tle": {"line1": "1 37185U 10053A   25342.24473441 -.00000020  00000+0  00000+0 0  9999", "line2": "2 37185   0.0633 272.7253 0001575 242.5035 254.9421  1.00270611 55561"}}, "geometry": {"type": "Point", "coordinates": [-161.8174482992225, -0.07044367775087106]}}, {"type": "Feature", "properties": {"norad_id": 37238, "name": "INTELSAT 17 (IS-17)", "group": "intelsat", "lat": 0.026244419375183528, "lon": 19.39142667542672, "alt_km": 35791.13800261934, "timestamp": "2025-12-08T15:42:49.446283+00:00", "meta": {"OBJECT_NAME": "INTELSAT 17 (IS-17)", "OBJECT_ID": "2010-065B", "EPOCH": "2025-12-08T05:21:14.977728", "MEAN_MOTION": 1.00272189, "ECCENTRICITY": 0.00023868, "INCLINATION": 0.0182, "RA_OF_ASC_NODE": 278.9294, "ARG_OF_PERICENTER": 339.5317, "MEAN_ANOMALY": 325.0916, "EPHEMERIS_TYPE": 0, "CLASSIFICATION_TYPE": "U", "NORAD_CAT_ID": 37238, "ELEMENT_SET_NO": 999, "REV_AT_EPOCH": 5133, "BSTAR": 0, "MEAN_MOTION_DOT": 1e-08, "MEAN_MOTION_DDOT": 0}, "tle": {"line1": "1 37238U 10065B   25342.22309002  .00000001  00000+0  00000+0 0  9998", "line2": "2 37238   0.0182 278.9294 0002386 339.5317 325.0916  1.00272189 51335"}}, "geometry": {"type": "Point", "coordinates": [19.39142667542672, 0.026244419375183528]}}, {"type": "Feature", "properties": {"norad_id": 37392, "name": "INTELSAT 28 (IS-28)", "group": "intelsat", "lat": -0.39446441827389067, "lon": -78.33898941180205, "alt_km": 35769.8462103586, "timestamp": "2025-12-08T15:42:49.446295+00:00", "meta": {"OBJECT_NAME": "INTELSAT 28 (IS-28)", "OBJECT_ID": "2011-016A", "EPOCH": "2025-12-08T03:10:49.968192", "MEAN_MOTION": 1.0027034, "ECCENTRICITY": 0.00041473, "INCLINATION": 1.3125, "RA_OF_ASC_NODE": 85.113, "ARG_OF_PERICENTER": 178.8993, "MEAN_ANOMALY": 189.131, "EPHEMERIS_TYPE": 0, "CLASSIFICATION_TYPE": "U", "NORAD_CAT_ID": 37392, "ELEMENT_SET_NO": 999, "REV_AT_EPOCH": 5137, "BSTAR": 0, "MEAN_MOTION_DOT": -2.23e-06, "MEAN_MOTION_DDOT": 0}, "tle": {"line1": "1 37392U 11016A   25342.13252278 -.00000223  00000+0  00000+0 0  9995", "line2": "2 37392   1.3125  85.1130 0004147 178.8993 189.1310  1.00270340 51373"}}, "geometry": {"type": "Point", "coordinates": [-78.33898941180205, -0.39446441827389067]}}]}